[{"OBJECT_NAME":"STARLINK-30472","OBJECT_ID":"2023-146L","EPOCH":"2026-03-09T01:39:16.370208","MEAN_MOTION":15.2671741,"ECCENTRICITY":0.00019725,"INCLINATION":43.0003,"RA_OF_ASC_NODE":314.091,"ARG_OF_PERICENTER":252.9974,"MEAN_ANOMALY":107.0662,"EPHEMERIS_TYPE":0,"CLASSIFICATION_TYPE":"U","NORAD_CAT_ID":57901,"ELEMENT_SET_NO":999,"REV_AT_EPOCH":13594,"BSTAR":-0.00021381266,"MEAN_MOTION_DOT":-5.987e-5,"MEAN_MOTION_DDOT":0},{"OBJECT_NAME":"CZ-6A DEB","OBJECT_ID":"2022-151DE","EPOCH":"2026-03-09T09:45:43.657920","MEAN_MOTION":15.34292219,"ECCENTRICITY":0.00393756,"INCLINATION":99.0022,"RA_OF_ASC_NODE":218.5596,"ARG_OF_PERICENTER":192.6197,"MEAN_ANOMALY":167.4059,"EPHEMERIS_TYPE":0,"CLASSIFICATION_TYPE":"U","NORAD_CAT_ID":54359,"ELEMENT_SET_NO":999,"REV_AT_EPOCH":10560,"BSTAR":0.0065240017,"MEAN_MOTION_DOT":0.00228186,"MEAN_MOTION_DDOT":0}]
